FENGYUN 1C DEB          
1 36689U 99025DZK 17344.37944502  .00000573  00000-0  53346-3 0  9999
2 36689  98.4655 201.0260 0345402 128.1337 235.1477 13.61409901183189
